OBJECT B                
1 51825U 22019B   24221.91889763  .00020277  00000+0  84831-3 0  9991
2 51825  97.4253 292.6638 0014889  59.3365 300.9338 15.23507974135255
